[{"OBJECT_NAME":"EOS-6 (OCEANSAT-3)","OBJECT_ID":"2022-158A","EPOCH":"2026-03-09T22:24:42.764256","MEAN_MOTION":14.47005704,"ECCENTRICITY":1.733e-5,"INCLINATION":98.3487,"RA_OF_ASC_NODE":168.4787,"ARG_OF_PERICENTER":158.292,"MEAN_ANOMALY":201.828,"EPHEMERIS_TYPE":0,"CLASSIFICATION_TYPE":"U","NORAD_CAT_ID":54361,"ELEMENT_SET_NO":999,"REV_AT_EPOCH":17348,"BSTAR":0.00014313559,"MEAN_MOTION_DOT":4.77e-6,"MEAN_MOTION_DDOT":0},{"OBJECT_NAME":"COSMOS 2251 DEB","OBJECT_ID":"1993-036AYT","EPOCH":"2026-03-09T10:29:10.707936","MEAN_MOTION":14.34351366,"ECCENTRICITY":0.00843779,"INCLINATION":74.0643,"RA_OF_ASC_NODE":114.7208,"ARG_OF_PERICENTER":123.8907,"MEAN_ANOMALY":237.0308,"EPHEMERIS_TYPE":0,"CLASSIFICATION_TYPE":"U","NORAD_CAT_ID":36366,"ELEMENT_SET_NO":999,"REV_AT_EPOCH":87531,"BSTAR":0.0013251495,"MEAN_MOTION_DOT":3.855e-5,"MEAN_MOTION_DDOT":0}]
